AMC-21                  
1 33275U 08038B   20214.47402387  .00000019  00000-0  00000+0 0  9992
2 33275   0.0622 277.3351 0003377 220.3857 218.5509  1.00272309 43952
INMARSAT 4-F3           
1 33278U 08039A   20214.11280005 -.00000156  00000-0  00000-0 0  9992
2 33278   3.1402  13.0531 0002696 125.1660 114.5930  1.00273129 25063
NIMIQ 4                 
1 33373U 08044A   20214.43818510 -.00000237  00000-0  00000+0 0  9996
2 33373   0.0082  29.5127 0002168 107.9517 248.7683  1.00271456 43320
GALAXY 19 (G-19)        
1 33376U 08045A   20214.50875892 -.00000156  00000-0  00000+0 0  9994
2 33376   0.0253  85.3337 0003589  49.1209 262.2688  1.00269797 43320
ASTRA 1M                
1 33436U 08057A   20214.13617927  .00000103  00000-0  00000-0 0  9998
2 33436   0.0183 119.9061 0005568  11.6466 246.8486  1.00269167 24217
CIEL-2                  
1 33453U 08063A   20214.25392417  .00000042  00000-0  00000-0 0  9993
2 33453   0.0079 256.4825 0003233 236.2550 140.1326  1.00270626 42638
EUTELSAT HOT BIRD 13C   
1 33459U 08065A   20214.06316281  .00000070  00000-0  00000+0 0  9995
2 33459   0.0460  43.7803 0005896  76.4267 225.6238  1.00269965 42733
EUTELSAT 48D            
1 33460U 08065B   20214.07014168  .00000108  00000-0  00000-0 0  9990
2 33460   0.0683 274.2105 0003888 236.4684 232.7680  1.00269856 42445
FENGYUN 2E              
1 33463U 08066A   20214.57010580 -.00000222  00000-0  00000+0 0  9990
2 33463   4.4325  68.4191 0002982 304.9798 229.0550  1.00274470 42575
EXPRESS-AM44            
1 33595U 09007A   20213.84306657 -.00000105  00000-0  00000+0 0  9994
2 33595   0.0366 237.3192 0000894 319.6267  45.4503  1.00271641 42036
NSS-9                   
1 33749U 09008A   20214.54042851  .00000054  00000-0  00000+0 0  9999
2 33749   0.0329 318.1059 0002374 170.9228 199.1730  1.00271857 42045
EUTELSAT 33E            
1 33750U 09008B   20214.06717566  .00000139  00000-0  00000+0 0  9994
2 33750   0.0525  27.4729 0003692 107.0443 232.8504  1.00272428 42086
TELSTAR 11N             
1 34111U 09009A   20214.41202376 -.00000268  00000-0  00000+0 0  9998
2 34111   0.0257  83.2677 0002789  31.9086 306.0717  1.00271013 41905
EUTELSAT 10A            
1 34710U 09016A   20214.06255215  .00000052  00000-0  00000-0 0  9993
2 34710   0.0647  23.3204 0005257 108.9523 210.3529  1.00272982 19738
WGS F2 (USA 204)        
1 34713U 09017A   20214.34632557  .00000030  00000-0  00000+0 0  9991
2 34713   0.0144  89.1249 0000475  66.3320 339.8194  1.00272691 41424
SES-7 (PROTOSTAR 2)     
1 34941U 09027A   20214.36936340 -.00000362  00000-0  00000+0 0  9993
2 34941   0.0169  52.9490 0000920 152.3782 346.3194  1.00270273 41105
MEASAT-3A               
1 35362U 09032A   20214.37827149 -.00000259  00000-0  00000+0 0  9999
2 35362   0.0577 248.4088 0002498 278.8427  10.8473  1.00273134 40711
GOES 14                 
1 35491U 09033A   20214.56834865 -.00000110  00000-0  00000+0 0  9993
2 35491   0.4265  97.7692 0009585 113.9504 199.0276  1.00270268 40645
SIRIUS FM-5             
1 35493U 09034A   20214.11524265 -.00000217  00000-0  00000+0 0  9995
2 35493   0.0281 303.5218 0000510 137.8709 184.1280  1.00271670 40451
TERRESTAR-1             
1 35496U 09035A   20214.24558453 -.00000073  00000-0  00000-0 0  9990
2 35496   2.5543  19.0212 0002636 116.7877 151.8946  1.00271240 40653
ASIASAT 5               
1 35696U 09042A   20214.23600230 -.00000325  00000-0  00000-0 0  9990
2 35696   0.0355 255.4592 0001408 200.9729  39.3086  1.00274437 40177
JCSAT-RA (JCSAT-12)     
1 35755U 09044A   20214.55604951 -.00000049  00000-0  00000+0 0  9999
2 35755   0.0549 116.1238 0002056 358.0555 205.4827  1.00270489 40149
OPTUS D3                
1 35756U 09044B   20214.26287090 -.00000164  00000-0  00000-0 0  9998
2 35756   0.0443 329.7502 0003035 144.2049  86.9812  1.00272316 40046
PALAPA D                
1 35812U 09046A   20213.82544397 -.00000375  00000-0  00000-0 0  9994
2 35812   0.2744  94.3147 0002956  65.7146 199.9641  1.00272247 40140
NIMIQ 5                 
1 35873U 09050A   20214.24098108 -.00000274  00000-0  00000+0 0  9994
2 35873   0.0209  78.0315 0003703  71.9342 174.3931  1.00269570 39833
AMAZONAS 2              
1 35942U 09054A   20214.44853390 -.00000300  00000-0  00000+0 0  9999
2 35942   0.0266 132.2579 0006028   7.1914 271.5216  1.00270323 39662
COMSATBW-1              
1 35943U 09054B   20214.14499010  .00000008  00000-0  00000-0 0  9997
2 35943   0.0383 103.3087 0003513  25.8813 296.2177  1.00269822 39771
NSS-12                  
1 36032U 09058A   20214.14376881  .00000055  00000-0  00000-0 0  9993
2 36032   0.0517 280.5021 0003164 212.8701 285.5723  1.00271371 39402
THOR 6                  
1 36033U 09058B   20214.34755441 -.00000027  00000-0  00000+0 0  9998
2 36033   0.0038 267.0975 0002136 229.6813 297.8910  1.00270748 39453
INTELSAT 14 (IS-14)     
1 36097U 09064A   20214.41054076 -.00000291  00000-0  00000+0 0  9992
2 36097   0.0121 101.7375 0002702  26.3804 285.1433  1.00271608 39181
EUTELSAT 36B            
1 36101U 09065A   20214.13949425  .00000139  00000-0  00000+0 0  9999
2 36101   0.0652  22.9658 0004599 103.9398 269.3763  1.00272893 39299
INTELSAT 15 (IS-15)     
1 36106U 09067A   20214.07755674 -.00000201  00000-0  00000+0 0  9991
2 36106   0.0247  71.8521 0002597  59.0485 292.3096  1.00270149 39084
WGS F3 (USA 211)        
1 36108U 09068A   20214.41708345 -.00000114  00000-0  00000+0 0  9998
2 36108   0.0278  88.2252 0000524  52.0641 308.3299  1.00269374 39001
DIRECTV 12              
1 36131U 09075A   20213.96833736 -.00000119  00000-0  00000-0 0  9990
2 36131   0.0442 246.0981 0000332 162.8823 146.8524  1.00272215 25056
BEIDOU 3                
1 36287U 10001A   20214.06923163 -.00000297  00000-0  00000-0 0  9996
2 36287   1.4763  29.0980 0005643 110.9592 335.4206  1.00273811 38661
RADUGA-1M 2             
1 36358U 10002A   20214.38382569 -.00000201  00000-0  00000+0 0  9994
2 36358   0.0443 243.2006 0002921 252.2545  38.1457  1.00274281 38491
SDO                     
1 36395U 10005A   20213.27340809 -.00000108  00000-0  00000+0 0  9992
2 36395  30.3942 120.5725 0001605   3.1972 181.8963  1.00269186 38500
INTELSAT 16 (IS-16)     
1 36397U 10006A   20214.11716184 -.00000261  00000-0  00000+0 0  9992
2 36397   0.0228  75.9968 0002637  66.3266 133.8350  1.00270136 38210
GOES 15                 
1 36411U 10008A   20214.47195642  .00000038  00000-0  00000+0 0  9991
2 36411   0.0400 229.0750 0002705 218.2623 264.7136  1.00274203 38159
ECHOSTAR 14             
1 36499U 10010A   20214.49346508 -.00000017  00000-0  00000+0 0  9999
2 36499   0.0210  83.1940 0003014  52.4528 233.6515  1.00271643 38027
SES-1                   
1 36516U 10016A   20214.09280490 -.00000131  00000-0  00000-0 0  9996
2 36516   0.0313 300.1424 0002786 184.6606 117.7416  1.00271516 37525
ASTRA 3B                
1 36581U 10021A   20214.13705163  .00000120  00000-0  00000+0 0  9994
2 36581   0.0317 353.7851 0003101 142.1965 247.0600  1.00268442 37131
COMSATBW-2              
1 36582U 10021B   20214.13504521  .00000072  00000-0  00000+0 0  9996
2 36582   0.0404  91.0683 0003102  46.1896 234.7325  1.00273913 37474
BADR-5                  
1 36592U 10025A   20214.28090616  .00000127  00000-0  00000+0 0  9993
2 36592   0.0210 116.7016 0005702  23.1482 297.6002  1.00268459 37388
COMS 1                  
1 36744U 10032A   20214.44508618 -.00000361  00000-0  00000+0 0  9995
2 36744   0.0193  79.5577 0001138  40.5970 118.7172  1.00272620 37138
ARABSAT-5A              
1 36745U 10032B   20214.13844741  .00000137  00000-0  00000+0 0  9992
2 36745   0.0633  47.8334 0005056  98.5040 244.1654  1.00272011 37112
ECHOSTAR 15             
1 36792U 10034A   20214.44853418 -.00000299  00000-0  00000+0 0  9991
2 36792   0.0162  67.9582 0001907  49.0732 293.3091  1.00271396 36888
BEIDOU 5                
1 36828U 10036A   20213.15848015 -.00000116  00000-0  10000-3 0  9990
2 36828  54.1653 182.5675 0097758 234.7479  63.9251  1.00245893 36680
NILESAT 201             
1 36830U 10037A   20214.13094512 -.00000074  00000-0  00000+0 0  9996
2 36830   0.0493 183.8527 0005803 297.6033 228.8546  1.00271984 36778
RASCOM-QAF 1R           
1 36831U 10037B   20214.13295154  .00000002  00000-0  00000-0 0  9993
2 36831   0.0225  95.8312 0005290  33.5559 231.5555  1.00272957 36778
AEHF-1 (USA 214)        
1 36868U 10039A   20214.27671883  .00000007  00000-0  00000+0 0  9991
2 36868   2.8478  96.8848 0005954   9.6575 307.3789  1.00273286 36926
CHINASAT 6A (ZX 6A)     
1 37150U 10042A   20213.98189098 -.00000370  00000-0  00000+0 0  9993
2 37150   0.0319 221.6456 0002037 294.1809 272.7023  1.00267772 36387
QZS-1 (MICHIBIKI-1)     
1 37158U 10045A   20213.68203378 -.00000228  00000-0  00000+0 0  9991
2 37158  41.6643 142.9710 0761837 270.8525 280.2009  1.00261717 36190
XM-5                    
1 37185U 10053A   20214.43611818 -.00000222  00000-0  00000+0 0  9990
2 37185   0.0262  80.2631 0002772 327.9017 334.1240  1.00271223 35938
BSAT-3B                 
1 37207U 10056B   20214.06368734 -.00000367  00000-0  00000-0 0  9994
2 37207   0.0773 299.0416 0000201 126.7694  17.0841  1.00271762 30669
BEIDOU 6                
1 37210U 10057A   20214.29970244 -.00000130  00000-0  00000-0 0  9997
2 37210   0.8873  51.3896 0005047 110.6576  56.2145  1.00271193 35763
SKYTERRA 1              
1 37218U 10061A   20214.09280490 -.00000133  00000-0  00000-0 0  9998
2 37218   2.1400   2.0436 0002721 146.5975  93.5988  1.00270882 35686
ZHONGXING-20A           
1 37234U 10064A   20214.51652958 -.00000368  00000-0  00000+0 0  9997
2 37234   0.9688  96.6343 0004029  18.8805 147.4024  1.00272129 35518
HYLAS 1                 
1 37237U 10065A   20214.56289580 -.00000124  00000-0  00000+0 0  9993
2 37237   0.2340  95.1502 0004176  21.2739 197.2423  1.00272113 35482
